[{"OBJECT_NAME":"PISAT","OBJECT_ID":"2016-059B","EPOCH":"2026-03-09T23:04:32.673792","MEAN_MOTION":14.68774579,"ECCENTRICITY":0.00295599,"INCLINATION":97.8192,"RA_OF_ASC_NODE":73.6916,"ARG_OF_PERICENTER":159.8662,"MEAN_ANOMALY":200.3717,"EPHEMERIS_TYPE":0,"CLASSIFICATION_TYPE":"U","NORAD_CAT_ID":41784,"ELEMENT_SET_NO":999,"REV_AT_EPOCH":50517,"BSTAR":0.00024765748,"MEAN_MOTION_DOT":1.407e-5,"MEAN_MOTION_DDOT":0},{"OBJECT_NAME":"ASTRO-F DEB [LENS COVER]","OBJECT_ID":"2006-005E","EPOCH":"2026-03-09T14:48:44.747712","MEAN_MOTION":14.67006529,"ECCENTRICITY":0.0009108,"INCLINATION":98.0746,"RA_OF_ASC_NODE":84.3471,"ARG_OF_PERICENTER":160.2838,"MEAN_ANOMALY":199.872,"EPHEMERIS_TYPE":0,"CLASSIFICATION_TYPE":"U","NORAD_CAT_ID":29054,"ELEMENT_SET_NO":999,"REV_AT_EPOCH":6783,"BSTAR":0.00020644,"MEAN_MOTION_DOT":1.109e-5,"MEAN_MOTION_DDOT":0}]
